[{"OBJECT_NAME":"JILIN-1 GAOFEN 03D50","OBJECT_ID":"2022-167J","EPOCH":"2026-03-09T22:35:59.947584","MEAN_MOTION":15.32279726,"ECCENTRICITY":0.00065764,"INCLINATION":97.6731,"RA_OF_ASC_NODE":232.9458,"ARG_OF_PERICENTER":101.1473,"MEAN_ANOMALY":259.0507,"EPHEMERIS_TYPE":0,"CLASSIFICATION_TYPE":"U","NORAD_CAT_ID":54690,"ELEMENT_SET_NO":999,"REV_AT_EPOCH":18014,"BSTAR":0.00049467973,"MEAN_MOTION_DOT":0.00015359,"MEAN_MOTION_DDOT":0},{"OBJECT_NAME":"STARLINK-32371","OBJECT_ID":"2024-154P","EPOCH":"2026-03-09T21:03:20.633760","MEAN_MOTION":15.30200468,"ECCENTRICITY":0.00012748,"INCLINATION":53.1602,"RA_OF_ASC_NODE":282.972,"ARG_OF_PERICENTER":70.4855,"MEAN_ANOMALY":289.6283,"EPHEMERIS_TYPE":0,"CLASSIFICATION_TYPE":"U","NORAD_CAT_ID":60916,"ELEMENT_SET_NO":999,"REV_AT_EPOCH":8636,"BSTAR":-0.00012700477,"MEAN_MOTION_DOT":-4.119e-5,"MEAN_MOTION_DDOT":0}]
